STARLINK-2306
1 17988C 21024M   21326.15681431  .00001731  00000-0  11601-3 0  3266
2 17988  53.0545 153.0384 0001805  79.5905 311.1010 15.06387089    18
